ONEWEB-0389             
1 50469U 21132A   24130.49698372 -.00000027  00000+0 -10181-3 0  9995
2 50469  87.9179 158.8568 0002118  80.1239 280.0132 13.17647399116850
ONEWEB-0390             
1 50470U 21132B   24130.57450123 -.00000005  00000+0 -44904-4 0  9993
2 50470  87.9181 158.8492 0002423  89.0235 271.1174 13.17648599116865
ONEWEB-0391             
1 50471U 21132C   24131.10763566  .00000082  00000+0  17823-3 0  9994
2 50471  87.9188 158.7237 0001955  80.3591 279.7761 13.17648812118223
ONEWEB-0392             
1 50472U 21132D   24130.60615010  .00000031  00000+0  45735-4 0  9997
2 50472  87.9172 158.8291 0002091  83.1350 277.0019 13.17648870116908
ONEWEB-0393             
1 50473U 21132E   24130.57939154 -.00000024  00000+0 -96124-4 0  9994
2 50473  87.9184 158.8064 0002101  84.2179 275.9192 13.17648614116896
ONEWEB-0394             
1 50474U 21132F   24130.92416630  .00000095  00000+0  20800-3 0  9996
2 50474  87.9117 128.3926 0001967  85.8167 274.3190 13.18685816120347
ONEWEB-0395             
1 50475U 21132G   24131.16407824  .00002517  00000+0  70605-2 0  9997
2 50475  87.8989 173.8802 0002224  87.4604 272.6778 13.11443127116329
ONEWEB-0396             
1 50476U 21132H   24130.91784382  .00000083  00000+0  17825-3 0  9999
2 50476  87.9119 128.3899 0001876  84.8315 275.3031 13.18686131120383
ONEWEB-0397             
1 50477U 21132J   24131.23557223  .00000108  00000+0  24020-3 0  9991
2 50477  87.9120 128.3278 0001875  82.9593 277.1752 13.18686781121677
ONEWEB-0398             
1 50478U 21132K   24130.67385736  .00000580  00000+0  15994-2 0  9990
2 50478  87.8981 173.9582 0002412  89.3772 270.7633 13.11422937114880
ONEWEB-0399             
1 50479U 21132L   24130.65932310 -.00005570  00000+0 -15773-1 0  9995
2 50479  87.8980 173.9770 0001713  94.7259 265.4065 13.11368119114872
ONEWEB-0400             
1 50480U 21132M   24130.91152304  .00000062  00000+0  12445-3 0  9997
2 50480  87.9117 128.3971 0002244  87.8667 272.2722 13.18686180120354
ONEWEB-0401             
1 50481U 21132N   24131.03007051  .00000093  00000+0  20382-3 0  9993
2 50481  87.9114 128.3712 0001795  94.9705 265.1632 13.18685579121653
ONEWEB-0402             
1 50482U 21132P   24130.91941509  .00000053  00000+0  10122-3 0  9992
2 50482  87.9116 128.3904 0001911 106.4108 253.7234 13.18685072120383
ONEWEB-0403             
1 50483U 21132Q   24130.94312670  .00000079  00000+0  16768-3 0  9997
2 50483  87.9117 128.3925 0001806  85.4131 274.7207 13.18684267120347
ONEWEB-0404             
1 50484U 21132R   24130.64143100 -.00000568  00000+0 -16391-2 0  9991
2 50484  87.8994 173.9498 0001928  83.5692 276.5655 13.11407780114961
ONEWEB-0405             
1 50485U 21132S   24130.95893681  .00000071  00000+0  14656-3 0  9992
2 50485  87.9118 128.3789 0001577  96.2189 263.9122 13.18684923120745
ONEWEB-0406             
1 50486U 21132T   24131.25138725  .00000012  00000+0 -20984-5 0  9997
2 50486  87.9121 128.3311 0002100  77.5164 282.6203 13.18685434121702
ONEWEB-0407             
1 50487U 21132U   24130.94155135  .00000108  00000+0  24169-3 0  9999
2 50487  87.9114 128.3966 0001832  89.4616 270.6726 13.18684930120319
ONEWEB-0409             
1 50488U 21132V   24131.17386801 -.00000219  00000+0 -65283-3 0  9999
2 50488  87.8984 173.8445 0002238  78.4242 281.7137 13.11414248116203
ONEWEB-0412             
1 50489U 21132W   24130.93048461  .00000117  00000+0  26384-3 0  9994
2 50489  87.9121 128.3963 0001514  96.4468 263.6837 13.18686208120401
ONEWEB-0413             
1 50490U 21132X   24131.23873818  .00000088  00000+0  19124-3 0  9993
2 50490  87.9120 128.3482 0001783 100.4630 259.6703 13.18686897121674
ONEWEB-0414             
1 50491U 21132Y   24130.92099954  .00000041  00000+0  70691-4 0  9996
2 50491  87.9116 128.3915 0001628  87.1181 273.0137 13.18684871120378
ONEWEB-0417             
1 50492U 21132Z   24130.92891155  .00000089  00000+0  19399-3 0  9999
2 50492  87.9123 128.3900 0002084  80.2405 279.8962 13.18685845120351
ONEWEB-0418             
1 50493U 21132AA  24130.93825426  .00000109  00000+0  24481-3 0  9990
2 50493  87.9119 128.3927 0002082  73.0848 287.0512 13.18685152120415
ONEWEB-0419             
1 50494U 21132AB  24131.03165374  .00000093  00000+0  20193-3 0  9990
2 50494  87.9114 128.3928 0002313  82.6249 277.5145 13.18686201121637
ONEWEB-0420             
1 50495U 21132AC  24130.92257538  .00000088  00000+0  19094-3 0  9994
2 50495  87.9115 128.4232 0001985  98.9338 261.2019 13.18681882120326
ONEWEB-0421             
1 50496U 21132AD  24130.91625805  .00000064  00000+0  12956-3 0  9994
2 50496  87.9124 128.3872 0001553  90.5282 269.6028 13.18685269120362
ONEWEB-0424             
1 50497U 21132AE  24130.95102912  .00001151  00000+0  28850-2 0  9995
2 50497  87.9117 128.3882 0002621  84.8411 275.3020 13.18696241120394
ONEWEB-0426             
1 50498U 21132AF  24130.91309961  .00000031  00000+0  44667-4 0  9997
2 50498  87.9115 128.4144 0001676  69.9082 290.2231 13.18686009120337
ONEWEB-0427             
1 50499U 21132AG  24131.25296837  .00000020  00000+0  18928-4 0  9992
2 50499  87.9116 128.3237 0001994  81.0164 279.1194 13.18684883121704
ONEWEB-0429             
1 50500U 21132AH  24130.93683267  .00002920  00000+0  73735-2 0  9992
2 50500  87.9123 128.3898 0002021  96.7662 263.3700 13.18676585120332
ONEWEB-0430             
1 50501U 21132AJ  24131.07749062  .00000042  00000+0  74543-4 0  9998
2 50501  87.9120 128.3683 0002483  93.0626 267.0790 13.18685438121680
ONEWEB-0432             
1 50502U 21132AK  24131.03324163  .00000070  00000+0  14550-3 0  9998
2 50502  87.9117 128.3704 0002471  83.8145 276.3269 13.18685865121645
ONEWEB-0440             
1 50503U 21132AL  24130.94471777  .00000114  00000+0  25668-3 0  9993
2 50503  87.9121 128.3755 0001556 101.4733 258.6574 13.18685574120323
ONEWEB-0450             
1 50504U 21132AM  24130.93852077  .00000113  00000+0  25365-3 0  9992
2 50504  87.9121 128.4051 0002200  97.8655 262.2727 13.18684948120350
ONEWEB-0410             
1 51622U 22012A   24130.59190786 -.00000015  00000+0 -70561-4 0  9998
2 51622  87.9176 158.8216 0001855  45.0803 315.0478 13.17648571112483
ONEWEB-0411             
1 51623U 22012B   24130.70385533  .00000239  00000+0  64878-3 0  9997
2 51623  87.8972 189.0057 0002796  98.5711 261.5734 13.10369085108648
ONEWEB-0415             
1 51624U 22012C   24130.70053914  .00000423  00000+0  11764-2 0  9993
2 51624  87.8967 189.0302 0002436  95.0566 265.0839 13.10371251108640
ONEWEB-0416             
1 51625U 22012D   24131.17029535  .00000032  00000+0  55140-4 0  9992
2 51625  87.8972 188.9301 0002023  97.7246 262.4111 13.10371009110031
ONEWEB-0422             
1 51626U 22012E   24131.13294793  .00000044  00000+0  78998-4 0  9998
2 51626  87.9176 158.7133 0002105 114.5959 245.5392 13.17649016113946
ONEWEB-0423             
1 51627U 22012F   24131.12662677  .00000076  00000+0  16269-3 0  9995
2 51627  87.9179 158.7150 0001932  94.5896 265.5456 13.17649299113848
ONEWEB-0425             
1 51628U 22012G   24131.18024056 -.00000480  00000+0 -14126-2 0  9995
2 51628  87.8971 188.9127 0001654  93.9115 266.2201 13.10371190110034
ONEWEB-0428             
1 51629U 22012H   24130.70218784  .00000370  00000+0  10247-2 0  9992
2 51629  87.8971 189.0220 0002310 104.3936 255.7448 13.10368864108643
ONEWEB-0431             
1 51630U 22012J   24131.13032077  .00000120  00000+0  30802-3 0  9994
2 51630  87.8972 188.9373 0002809 103.2756 256.8685 13.10375954110044
ONEWEB-0434             
1 51631U 22012K   24130.64905161 -.00000626  00000+0 -18299-2 0  9991
2 51631  87.8975 189.0442 0002051 104.5809 255.5545 13.10371184108677
ONEWEB-0435             
1 51632U 22012L   24130.65735210 -.00000535  00000+0 -15684-2 0  9993
2 51632  87.8976 189.0335 0002162 110.3613 249.7747 13.10373529108664
ONEWEB-0436             
1 51633U 22012M   24131.11870337  .00000062  00000+0  12602-3 0  9997
2 51633  87.9173 158.7229 0002034 100.1208 260.0154 13.17648092113824
ONEWEB-0438             
1 51634U 22012N   24130.71712083 -.00000458  00000+0 -13474-2 0  9994
2 51634  87.8972 189.0221 0001862  96.5517 263.5822 13.10369919108701
ONEWEB-0439             
1 51635U 22012P   24130.72044434 -.00000498  00000+0 -14640-2 0  9994
2 51635  87.8974 189.0059 0002121 100.1377 259.9989 13.10371699108686
ONEWEB-0442             
1 51636U 22012Q   24131.11001752 -.00000030  00000+0 -10934-3 0  9990
2 51636  87.9178 158.7579 0002148  70.7640 289.3723 13.17648540113811
ONEWEB-0443             
1 51637U 22012R   24130.59823001 -.00000009  00000+0 -56498-4 0  9993
2 51637  87.9181 158.8665 0001773 106.6758 253.4568 13.17648011113794
ONEWEB-0444             
1 51638U 22012S   24131.16863041  .00000014  00000+0  45492-5 0  9993
2 51638  87.8966 188.9412 0001992 105.0371 255.0977 13.10372248110042
ONEWEB-0445             
1 51639U 22012T   24130.73205699 -.00000650  00000+0 -18995-2 0  9998
2 51639  87.8967 189.0015 0002176  90.8486 269.2891 13.10373458108704
ONEWEB-0446             
1 51640U 22012U   24131.16697416  .00000066  00000+0  15348-3 0  9999
2 51640  87.8971 188.9361 0002279  91.4459 268.6930 13.10372596110043
ONEWEB-0448             
1 51641U 22012V   24131.17194915 -.00000117  00000+0 -37030-3 0  9998
2 51641  87.8969 188.9361 0001916 103.1981 256.9361 13.10371397110001
ONEWEB-0449             
1 51642U 22012W   24130.71877665 -.00000514  00000+0 -15101-2 0  9993
2 51642  87.8967 189.0229 0001820  93.2594 266.8741 13.10369593108664
ONEWEB-0451             
1 51643U 22012X   24130.88616156  .00000029  00000+0  42244-4 0  9997
2 51643  87.9174 158.7664 0001908  96.2102 263.9246 13.17648474112485
ONEWEB-0452             
1 51644U 22012Y   24131.11237822  .00000050  00000+0  95824-4 0  9990
2 51644  87.9178 158.7595 0001668  90.2236 269.9087 13.17648450113820
